{
  "type": "FeatureCollection",
  "features": [
    {
      "type": "Feature",
      "properties": {
        "norad_id": 31307,
        "name": "GALAXY 17 (G-17)",
        "group": "intelsat",
        "lat": -0.7535631743747686,
        "lon": 64.24623288738184,
        "alt_km": 35808.999865605656,
        "timestamp": "2025-12-21T03:56:50.521939+00:00",
        "meta_object_name": "GALAXY 17 (G-17)",
        "meta_object_id": "2007-016B",
        "meta_epoch": "2025-12-20T14:32:16.095840",
        "meta_mean_motion": 1.00271272,
        "meta_eccentricity": 0.0005398,
        "meta_inclination": 2.5184,
        "meta_ra_of_asc_node": 82.199,
        "meta_arg_of_pericenter": 169.9155,
        "meta_mean_anomaly": 330.42,
        "meta_ephemeris_type": 0,
        "meta_classification_type": "U",
        "meta_norad_cat_id": 31307,
        "meta_element_set_no": 999,
        "meta_rev_at_epoch": 6801,
        "meta_bstar": 0,
        "meta_mean_motion_dot": -1.85e-06,
        "meta_mean_motion_ddot": 0,
        "tle_line1": "1 31307U 07016B   25354.60574185 -.00000185  00000+0  00000+0 0  9996",
        "tle_line2": "2 31307   2.5184  82.1990 0005398 169.9155 330.4200  1.00271272 68015"
      },
      "geometry": {
        "type": "Point",
        "coordinates": [
          64.24623288738184,
          -0.7535631743747686
        ]
      }
    },
    {
      "type": "Feature",
      "properties": {
        "norad_id": 31862,
        "name": "DIRECTV 10",
        "group": "intelsat",
        "lat": -0.002193898316814734,
        "lon": 46.3874415374294,
        "alt_km": 35787.09426761706,
        "timestamp": "2025-12-21T03:56:50.521949+00:00",
        "meta_object_name": "DIRECTV 10",
        "meta_object_id": "2007-032A",
        "meta_epoch": "2025-12-20T14:27:16.573824",
        "meta_mean_motion": 1.00271665,
        "meta_eccentricity": 2.44e-05,
        "meta_inclination": 0.0067,
        "meta_ra_of_asc_node": 112.428,
        "meta_arg_of_pericenter": 94.8447,
        "meta_mean_anomaly": 356.179,
        "meta_ephemeris_type": 0,
        "meta_classification_type": "U",
        "meta_norad_cat_id": 31862,
        "meta_element_set_no": 999,
        "meta_rev_at_epoch": 4380,
        "meta_bstar": 0,
        "meta_mean_motion_dot": -7.9e-07,
        "meta_mean_motion_ddot": 0,
        "tle_line1": "1 31862U 07032A   25354.60227516 -.00000079  00000+0  00000+0 0  9995",
        "tle_line2": "2 31862   0.0067 112.4280 0000244  94.8447 356.1790  1.00271665 43803"
      },
      "geometry": {
        "type": "Point",
        "coordinates": [
          46.3874415374294,
          -0.002193898316814734
        ]
      }
    },
    {
      "type": "Feature",
      "properties": {
        "norad_id": 32253,
        "name": "INTELSAT 11 (IS-11)",
        "group": "intelsat",
        "lat": -3.0346497901514753,
        "lon": -22.088701017188164,
        "alt_km": 36130.403729380334,
        "timestamp": "2025-12-21T03:56:50.521960+00:00",
        "meta_object_name": "INTELSAT 11 (IS-11)",
        "meta_object_id": "2007-044B",
        "meta_epoch": "2025-12-20T15:51:01.054368",
        "meta_mean_motion": 0.99052297,
        "meta_eccentricity": 0.0008536,
        "meta_inclination": 3.0996,
        "meta_ra_of_asc_node": 80.8896,
        "meta_arg_of_pericenter": 168.9829,
        "meta_mean_anomaly": 268.2225,
        "meta_ephemeris_type": 0,
        "meta_classification_type": "U",
        "meta_norad_cat_id": 32253,
        "meta_element_set_no": 999,
        "meta_rev_at_epoch": 6668,
        "meta_bstar": 0,
        "meta_mean_motion_dot": -6.6e-07,
        "meta_mean_motion_ddot": 0,
        "tle_line1": "1 32253U 07044B   25354.66042887 -.00000066  00000+0  00000+0 0  9991",
        "tle_line2": "2 32253   3.0996  80.8896 0008536 168.9829 268.2225  0.99052297 66684"
      },
      "geometry": {
        "type": "Point",
        "coordinates": [
          -22.088701017188164,
          -3.0346497901514753
        ]
      }
    },
    {
      "type": "Feature",
      "properties": {
        "norad_id": 32388,
        "name": "HORIZONS-2",
        "group": "intelsat",
        "lat": -0.25174395284644124,
        "lon": 75.43287577339989,
        "alt_km": 35804.32928816202,
        "timestamp": "2025-12-21T03:56:50.521971+00:00",
        "meta_object_name": "HORIZONS-2",
        "meta_object_id": "2007-063B",
        "meta_epoch": "2025-12-20T12:50:36.450240",
        "meta_mean_motion": 1.00271677,
        "meta_eccentricity": 0.0004588,
        "meta_inclination": 2.1407,
        "meta_ra_of_asc_node": 82.878,
        "meta_arg_of_pericenter": 193.8672,
        "meta_mean_anomaly": 291.4916,
        "meta_ephemeris_type": 0,
        "meta_classification_type": "U",
        "meta_norad_cat_id": 32388,
        "meta_element_set_no": 999,
        "meta_rev_at_epoch": 6602,
        "meta_bstar": 0,
        "meta_mean_motion_dot": -2.32e-06,
        "meta_mean_motion_ddot": 0,
        "tle_line1": "1 32388U 07063B   25354.53514410 -.00000232  00000+0  00000+0 0  9998",
        "tle_line2": "2 32388   2.1407  82.8780 0004588 193.8672 291.4916  1.00271677 66021"
      },
      "geometry": {
        "type": "Point",
        "coordinates": [
          75.43287577339989,
          -0.25174395284644124
        ]
      }
    },
    {
      "type": "Feature",
      "properties": {
        "norad_id": 32729,
        "name": "DIRECTV 11",
        "group": "intelsat",
        "lat": 0.018786256537181693,
        "lon": 50.03449448722075,
        "alt_km": 35786.18448757847,
        "timestamp": "2025-12-21T03:56:50.521982+00:00",
        "meta_object_name": "DIRECTV 11",
        "meta_object_id": "2008-013A",
        "meta_epoch": "2025-12-20T12:09:57.854304",
        "meta_mean_motion": 1.00281934,
        "meta_eccentricity": 6.957e-05,
        "meta_inclination": 0.0453,
        "meta_ra_of_asc_node": 198.5655,
        "meta_arg_of_pericenter": 32.627,
        "meta_mean_anomaly": 301.4589,
        "meta_ephemeris_type": 0,
        "meta_classification_type": "U",
        "meta_norad_cat_id": 32729,
        "meta_element_set_no": 999,
        "meta_rev_at_epoch": 4380,
        "meta_bstar": 0,
        "meta_mean_motion_dot": -1.03e-06,
        "meta_mean_motion_ddot": 0,
        "tle_line1": "1 32729U 08013A   25354.50691961 -.00000103  00000+0  00000+0 0  9994",
        "tle_line2": "2 32729   0.0453 198.5655 0000695  32.6270 301.4589  1.00281934 43809"
      },
      "geometry": {
        "type": "Point",
        "coordinates": [
          50.03449448722075,
          0.018786256537181693
        ]
      }
    },
    {
      "type": "Feature",
      "properties": {
        "norad_id": 32951,
        "name": "GALAXY 18 (G-18)",
        "group": "intelsat",
        "lat": -0.0022351182536730417,
        "lon": 26.208979617014567,
        "alt_km": 35790.64731122658,
        "timestamp": "2025-12-21T03:56:50.521993+00:00",
        "meta_object_name": "GALAXY 18 (G-18)",
        "meta_object_id": "2008-024A",
        "meta_epoch": "2025-12-20T17:46:55.869024",
        "meta_mean_motion": 1.00271082,
        "meta_eccentricity": 0.0002829,
        "meta_inclination": 0.016,
        "meta_ra_of_asc_node": 56.7149,
        "meta_arg_of_pericenter": 218.0405,
        "meta_mean_anomaly": 318.5378,
        "meta_ephemeris_type": 0,
        "meta_classification_type": "U",
        "meta_norad_cat_id": 32951,
        "meta_element_set_no": 999,
        "meta_rev_at_epoch": 4406,
        "meta_bstar": 0,
        "meta_mean_motion_dot": 4.9e-07,
        "meta_mean_motion_ddot": 0,
        "tle_line1": "1 32951U 08024A   25354.74092441  .00000049  00000+0  00000+0 0  9995",
        "tle_line2": "2 32951   0.0160  56.7149 0002829 218.0405 318.5378  1.00271082 44062"
      },
      "geometry": {
        "type": "Point",
        "coordinates": [
          26.208979617014567,
          -0.0022351182536730417
        ]
      }
    },
    {
      "type": "Feature",
      "properties": {
        "norad_id": 33153,
        "name": "INTELSAT 25 (IS-25)",
        "group": "intelsat",
        "lat": 1.316898980790798,
        "lon": 117.62991952937348,
        "alt_km": 35804.57350835685,
        "timestamp": "2025-12-21T03:56:50.522004+00:00",
        "meta_object_name": "INTELSAT 25 (IS-25)",
        "meta_object_id": "2008-034A",
        "meta_epoch": "2025-12-20T18:13:00.871104",
        "meta_mean_motion": 1.0026996,
        "meta_eccentricity": 0.00048,
        "meta_inclination": 2.2471,
        "meta_ra_of_asc_node": 82.5644,
        "meta_arg_of_pericenter": 188.0207,
        "meta_mean_anomaly": 60.7433,
        "meta_ephemeris_type": 0,
        "meta_classification_type": "U",
        "meta_norad_cat_id": 33153,
        "meta_element_set_no": 999,
        "meta_rev_at_epoch": 6390,
        "meta_bstar": 0,
        "meta_mean_motion_dot": -2.02e-06,
        "meta_mean_motion_ddot": 0,
        "tle_line1": "1 33153U 08034A   25354.75903786 -.00000202  00000+0  00000+0 0  9997",
        "tle_line2": "2 33153   2.2471  82.5644 0004800 188.0207  60.7433  1.00269960 63904"
      },
      "geometry": {
        "type": "Point",
        "coordinates": [
          117.62991952937348,
          1.316898980790798
        ]
      }
    }
  ]
}